satname,norad_id,inclination_deg,eccentricity,mean_motion_rev_per_day,perigee_km,apogee_km,l1,l2
STARLINK-1329,45531,53.0538,0.0001426,15.06406789,546.2031989719662,548.1783024464685,1 45531U 20025A   25271.00758972  .00002228  00000+0  16837-3 0  9993,2 45531  53.0538 116.9266 0001426  88.9881 271.1272 15.06406789300573
STARLINK-1338,45532,53.0531,0.0001321,15.0639704,546.3057901839011,548.1354696697281,1 45532U 20025B   25270.88595739  .00000914  00000+0  80255-4 0  9995,2 45532  53.0531 117.4697 0001321  95.7095 264.4044 15.06397040300557
STARLINK-1350,45535,53.0735,0.000199,15.31234471,470.7648617713994,473.491267267078,1 45535U 20025E   25270.94747279  .00017415  00000+0  57989-3 0  9994,2 45535  53.0735  74.6758 0001990 128.7521 231.3658 15.31234471301181
STARLINK-1362,45538,53.0534,0.0001464,15.06404536,546.1837867928589,548.2115247800739,1 45538U 20025H   25270.98450556  .00004690  00000+0  33351-3 0  9998,2 45538  53.0534 116.7473 0001464  96.7718 263.3437 15.06404536300576
STARLINK-1368,45540,53.0539,0.0001426,15.06398755,546.2278184381057,548.2029289350803,1 45540U 20025K   25270.59108978  .00004876  00000+0  34602-3 0  9992,2 45540  53.0539 118.7975 0001426  73.1607 286.9538 15.06398755300508
STARLINK-1371,45542,53.0536,0.0001253,15.06406492,546.3239172835356,548.0594046459737,1 45542U 20025M   25270.89332238  .00001071  00000+0  90784-4 0  9993,2 45542  53.0536 117.4428 0001253 103.1537 256.9591 15.06406492300559
STARLINK-1372,45543,53.0552,0.0001451,15.0640297,546.1975885760221,548.2073220859593,1 45543U 20025N   25270.99652809  .00001508  00000+0  12012-3 0  9996,2 45543  53.0552 116.9745 0001451 102.5629 257.5522 15.06402970299666
STARLINK-1373,45544,53.0536,0.0001487,15.06399363,546.183710631346,548.2433098730953,1 45544U 20025P   25271.01496373  .00001691  00000+0  13240-3 0  9990,2 45544  53.0536 116.8942 0001487 107.8079 252.3072 15.06399363300570
STARLINK-1294,45551,53.0512,0.0005121,15.53667818,402.5537139615917,409.50205563660256,1 45551U 20025W   25271.25003472  .00241070  00000+0  36026-2 0  9991,2 45551  53.0512  60.9106 0005121 270.4844 130.3369 15.53667818  5851
STARLINK-1323,45553,53.0353,0.0003498,15.93297799,290.7280275411604,295.39519809068497,1 45553U 20025Y   25271.25003472  .00390819  70409-4  10832-2 0  9991,2 45553  53.0353  41.7578 0003498  62.7368 259.9318 15.93297799  6016
STARLINK-1325,45554,53.0617,0.0004171,15.47275172,421.8636588181171,427.5385863799884,1 45554U 20025Z   25270.81253208  .00101270  00000+0  19375-2 0  9994,2 45554  53.0617  55.0683 0004171 354.2805   5.8154 15.47275172301439
STARLINK-1327,45555,53.0538,0.0001216,15.0638918,546.4025934612673,548.0868462955414,1 45555U 20025AA  25271.18635318  .00002537  00000+0  18920-3 0  9994,2 45555  53.0538  96.1237 0001216  90.8779 269.2349 15.06389180300872
STARLINK-1336,45557,53.0388,0.0002241,15.88947596,303.7345426077345,306.7300287215694,1 45557U 20025AC  25271.25003472  .00401044  00000+0  13194-2 0  9997,2 45557  53.0388  47.5353 0002241 119.3871 207.1819 15.88947596  6007
STARLINK-1342,45558,53.044,0.0001724,16.01210799,269.9182824778982,272.2109271912459,1 45558U 20025AD  25271.26202175  .00595594  17119-3  10639-2 0  9998,2 45558  53.0440  43.4962 0001724  10.1006 350.0058 16.01210799301613
STARLINK-1356,45564,53.0515,0.0001364,15.06416017,546.2178577275927,548.1070794226198,1 45564U 20025AK  25270.92464099  .00002922  00000+0  21486-3 0  9990,2 45564  53.0515  97.2916 0001364 134.5800 225.5300 15.06416017300836
STARLINK-1357,45565,53.0643,0.000798,15.26200741,481.70367893790535,492.66072838695163,1 45565U 20025AL  25270.80219377  .00086474  00000+0  32713-2 0  9993,2 45565  53.0643  88.2951 0007980 141.4637 218.6932 15.26200741300957
STARLINK-1361,45567,53.054,0.0001342,15.06406321,546.262805874776,548.121564228044,1 45567U 20025AN  25270.74403706  .00000859  00000+0  76525-4 0  9993,2 45567  53.0540  98.1086 0001342 103.0628 257.0511 15.06406321300819
STARLINK-1363,45568,53.0543,0.0001299,15.06398623,546.3161749222736,548.1153815740618,1 45568U 20025AP  25270.75882257  .00001559  00000+0  12351-3 0  9991,2 45568  53.0543  98.2853 0001299  76.0176 284.0958 15.06398623300803
STARLINK-1366,45569,53.0541,0.0001325,15.0641713,546.2414557253442,548.0766591805695,1 45569U 20025AQ  25270.81407440  .00005882  00000+0  41325-3 0  9992,2 45569  53.0541  97.7947 0001325  90.3368 269.7772 15.06417130300812
STARLINK-1376,45570,53.0541,0.0001276,15.06388195,546.3640597066533,548.1314178919938,1 45570U 20025AR  25270.80670239  .00003492  00000+0  25329-3 0  9992,2 45570  53.0541  97.8292 0001276  91.5053 268.6082 15.06388195300817
STARLINK-1320,45572,53.0606,0.0007708,15.37044421,449.58786451718515,460.12160457516075,1 45572U 20025AT  25271.25003472  .00162903  00000+0  43421-2 0  9998,2 45572  53.0606  47.0079 0007708 220.4165 256.1769 15.37044421  5871
STARLINK-1321,45573,53.0538,0.0001389,15.06402666,546.2414572645421,548.1653168240637,1 45573U 20025AU  25270.66019340  .00000159  00000+0  29559-4 0  9996,2 45573  53.0538  88.4836 0001389  92.6029 267.5119 15.06402666300635
STARLINK-1328,45576,53.055,0.0003845,15.57005955,393.7230452581571,398.93260871010716,1 45576U 20025AX  25271.25003472  .00211761  00000+0  28110-2 0  9997,2 45576  53.0550  75.4141 0003845 252.4766  60.5870 15.57005955  5903
STARLINK-1331,45578,53.0547,0.0001314,15.06399173,546.3041014417631,548.1240837088908,1 45578U 20025AZ  25270.77077184  .00000458  00000+0  49641-4 0  9999,2 45578  53.0547  87.9900 0001314  92.2984 267.8155 15.06399173300967
STARLINK-1333,45580,53.0541,0.0001346,15.06408254,546.2541122216862,548.118409243476,1 45580U 20025BB  25270.84356679  .00001303  00000+0  10635-3 0  9999,2 45580  53.0541  97.6640 0001346  94.8039 265.3104 15.06408254300820
STARLINK-1335,45581,53.0536,0.0001364,15.06403301,546.2568247038498,548.146057030518,1 45581U 20025BC  25270.64913105  .00002460  00000+0  18397-3 0  9999,2 45581  53.0536  88.5368 0001364  84.2044 275.9100 15.06403301300933
STARLINK-1337,45582,53.0544,0.000137,15.06398536,546.2672715239069,548.1648182582076,1 45582U 20025BD  25270.80394606  .00005567  00000+0  39234-3 0  9991,2 45582  53.0544  87.8415 0001370  93.2127 266.9018 15.06398536300950
STARLINK-1347,45586,53.0577,0.0006645,15.25562589,484.5333296689287,493.65988313183516,1 45586U 20025BH  25270.65247471  .00088285  00000+0  34043-2 0  9995,2 45586  53.0577  79.3188 0006645 147.7677 212.3728 15.25562589301055
STARLINK-1360,45588,53.0497,0.000421,15.67786533,362.3976431214369,368.0755636955064,1 45588U 20025BK  25270.68391820  .00091834  00000+0  81608-3 0  9992,2 45588  53.0497   8.2963 0004210   4.0314 356.0735 15.67786533302068
STARLINK-1364,45589,53.0559,0.0001219,15.06391067,546.3947331053341,548.0831397586353,1 45589U 20025BL  25270.80762775 -.00002464  00000+0 -14663-3 0  9998,2 45589  53.0559  87.8267 0001219  86.1164 273.9964 15.06391067300952
STARLINK-1365,45590,53.0516,0.0001597,15.06401053,546.1023529975137,548.3143082961215,1 45590U 20025BM  25270.88962044 -.00002621  00000+0 -15712-3 0  9990,2 45590  53.0516 117.4540 0001597 147.3476 212.7612 15.06401053300561
STARLINK-1443,45660,53.0546,0.0001257,15.06396917,546.3504894038906,548.0915244068265,1 45660U 20035D   25270.87489517 -.00000417  00000+0 -90930-5 0  9995,2 45660  53.0546  77.5231 0001257  93.5227 266.5906 15.06396917294190
STARLINK-1446,45663,53.0291,0.0004789,15.30106651,472.211603083877,478.7760106707037,1 45663U 20035G   25270.65496764  .00033930  00000+0  11554-2 0  9992,2 45663  53.0291  47.5289 0004789 155.1583 204.9647 15.30106651294596
STARLINK-1448,45665,53.0539,0.0001317,15.06406059,546.2809220787512,548.1050539976013,1 45665U 20035J   25270.61319835  .00004018  00000+0  28840-3 0  9995,2 45665  53.0539  78.6954 0001317  82.5907 277.5232 15.06406059294149
STARLINK-1451,45668,53.0535,0.0001345,15.06409736,546.2502632935693,548.1131740288893,1 45668U 20035M   25270.88229715  .00003826  00000+0  27552-3 0  9999,2 45668  53.0535  77.8063 0001345  86.6699 273.4444 15.06409736294194
STARLINK-1452,45669,53.0449,0.0004907,15.22378518,495.2940850623763,502.04298201299025,1 45669U 20035N   25270.73556046  .00087128  00000+0  36949-2 0  9990,2 45669  53.0449  63.7973 0004907 234.3781 125.6758 15.22378518294371
STARLINK-1453,45670,53.0558,0.000113,15.06417581,546.3751169311527,547.9402335277555,1 45670U 20035P   25270.75968895  .00003975  00000+0  28549-3 0  9999,2 45670  53.0558  48.0413 0001130  97.6008 262.5110 15.06417581294487
STARLINK-1454,45671,53.0558,0.0001588,15.06403088,546.1023498311215,548.3018375272732,1 45671U 20035Q   25270.70534681  .00002848  00000+0  20998-3 0  9995,2 45671  53.0558  78.2854 0001588 110.6635 249.4524 15.06403088294155
STARLINK-1456,45673,53.0547,0.0001271,15.064164,546.2810893430533,548.041500169581,1 45673U 20035S   25270.65374225  .00006279  00000+0  43984-3 0  9999,2 45673  53.0547  78.5166 0001271  99.1161 260.9972 15.06416400294166
STARLINK-1457,45674,53.0548,0.0001126,15.06397806,546.438487235665,547.9980772452263,1 45674U 20035T   25270.66110763  .00002559  00000+0  19063-3 0  9994,2 45674  53.0548  78.4839 0001126  95.5388 264.5730 15.06397806294131
STARLINK-1458,45675,53.0554,0.0001436,15.06400933,546.2142187868367,548.2031780714251,1 45675U 20035U   25270.65005012  .00000500  00000+0  52452-4 0  9998,2 45675  53.0554  78.5311 0001436  96.5931 263.5221 15.06400933294123
STARLINK-1460,45676,53.0555,0.0001196,15.06403323,546.3731029711362,548.0296439100639,1 45676U 20035V   25270.75325408  .00000957  00000+0  83137-4 0  9994,2 45676  53.0555  78.0681 0001196  83.9732 276.1393 15.06403323294139
STARLINK-1392,45677,53.0559,0.0001237,15.06392159,546.3789209888764,548.0922581675377,1 45677U 20035W   25270.89700885 -.00000901  00000+0 -41602-4 0  9998,2 45677  53.0559  77.4227 0001237  95.8303 264.2827 15.06392159294195
